{"type": "FeatureCollection", "features": [ {"type": "Feature", "properties": {"norad_id": 58662, "name": "TIANMU-1 21", "group": "weather", "lat": -74.28986158873828, "lon": -101.27673537824684, "alt_km": 474.2651812498989, "timestamp": "2025-12-18T23:35:48.689346+00:00", "meta": {"OBJECT_NAME": "TIANMU-1 21", "OBJECT_ID": "2023-208C", "EPOCH": "2025-12-18T14:38:32.253792", "MEAN_MOTION": 15.31674347, "ECCENTRICITY": 0.00060911, "INCLINATION": 97.4379, "RA_OF_ASC_NODE": 106.024, "ARG_OF_PERICENTER": 235.2549, "MEAN_ANOMALY": 124.8119, "EPHEMERIS_TYPE": 0, "CLASSIFICATION_TYPE": "U", "NORAD_CAT_ID": 58662, "ELEMENT_SET_NO": 999, "REV_AT_EPOCH": 10989, "BSTAR": 0.00031494479, "MEAN_MOTION_DOT": 9.561e-05, "MEAN_MOTION_DDOT": 0}, "tle": {"line1": "1 58662U 23208C   25352.61009553  .00009561  00000+0  31494-3 0  9992", "line2": "2 58662  97.4379 106.0240 0006091 235.2549 124.8119 15.31674347109891"}}, "geometry": {"type": "Point", "coordinates": [-101.27673537824684, -74.28986158873828]}}, {"type": "Feature", "properties": {"norad_id": 58663, "name": "TIANMU-1 22", "group": "weather", "lat": 82.53380379931221, "lon": 18.522114795663892, "alt_km": 476.9946249103332, "timestamp": "2025-12-18T23:35:48.689355+00:00", "meta": {"OBJECT_NAME": "TIANMU-1 22", "OBJECT_ID": "2023-208D", "EPOCH": "2025-12-18T13:46:29.228160", "MEAN_MOTION": 15.27701375, "ECCENTRICITY": 0.00027105, "INCLINATION": 97.4387, "RA_OF_ASC_NODE": 103.6563, "ARG_OF_PERICENTER": 255.6858, "MEAN_ANOMALY": 104.408, "EPHEMERIS_TYPE": 0, "CLASSIFICATION_TYPE": "U", "NORAD_CAT_ID": 58663, "ELEMENT_SET_NO": 999, "REV_AT_EPOCH": 10972, "BSTAR": 0.00026734245, "MEAN_MOTION_DOT": 7.163e-05, "MEAN_MOTION_DDOT": 0}, "tle": {"line1": "1 58663U 23208D   25352.57394940  .00007163  00000+0  26734-3 0  9992", "line2": "2 58663  97.4387 103.6563 0002710 255.6858 104.4080 15.27701375109725"}}, "geometry": {"type": "Point", "coordinates": [18.522114795663892, 82.53380379931221]}}, {"type": "Feature", "properties": {"norad_id": 58700, "name": "TIANMU-1 15", "group": "weather", "lat": 32.51808977545117, "lon": -0.7777625965066023, "alt_km": 492.34009743851857, "timestamp": "2025-12-18T23:35:48.689366+00:00", "meta": {"OBJECT_NAME": "TIANMU-1 15", "OBJECT_ID": "2024-004A", "EPOCH": "2025-12-18T15:04:36.200064", "MEAN_MOTION": 15.2448368, "ECCENTRICITY": 0.00059537, "INCLINATION": 97.4621, "RA_OF_ASC_NODE": 174.0755, "ARG_OF_PERICENTER": 265.5102, "MEAN_ANOMALY": 94.5456, "EPHEMERIS_TYPE": 0, "CLASSIFICATION_TYPE": "U", "NORAD_CAT_ID": 58700, "ELEMENT_SET_NO": 999, "REV_AT_EPOCH": 10824, "BSTAR": 0.00024054207, "MEAN_MOTION_DOT": 5.841e-05, "MEAN_MOTION_DDOT": 0}, "tle": {"line1": "1 58700U 24004A   25352.62819676  .00005841  00000+0  24054-3 0  9997", "line2": "2 58700  97.4621 174.0755 0005953 265.5102  94.5456 15.24483680108242"}}, "geometry": {"type": "Point", "coordinates": [-0.7777625965066023, 32.51808977545117]}}, {"type": "Feature", "properties": {"norad_id": 58701, "name": "TIANMU-1 16", "group": "weather", "lat": -48.735426443826434, "lon": -14.77150748363625, "alt_km": 496.8575761372904, "timestamp": "2025-12-18T23:35:48.689376+00:00", "meta": {"OBJECT_NAME": "TIANMU-1 16", "OBJECT_ID": "2024-004B", "EPOCH": "2025-12-18T14:43:03.566208", "MEAN_MOTION": 15.24509662, "ECCENTRICITY": 0.000432, "INCLINATION": 97.4561, "RA_OF_ASC_NODE": 173.4444, "ARG_OF_PERICENTER": 269.7192, "MEAN_ANOMALY": 90.355, "EPHEMERIS_TYPE": 0, "CLASSIFICATION_TYPE": "U", "NORAD_CAT_ID": 58701, "ELEMENT_SET_NO": 999, "REV_AT_EPOCH": 10824, "BSTAR": 0.00022351202, "MEAN_MOTION_DOT": 5.425e-05, "MEAN_MOTION_DDOT": 0}, "tle": {"line1": "1 58701U 24004B   25352.61323572  .00005425  00000+0  22351-3 0  9998", "line2": "2 58701  97.4561 173.4444 0004320 269.7192  90.3550 15.24509662108244"}}, "geometry": {"type": "Point", "coordinates": [-14.77150748363625, -48.735426443826434]}}, {"type": "Feature", "properties": {"norad_id": 58702, "name": "TIANMU-1 17", "group": "weather", "lat": -44.855821756510935, "lon": -178.28334139950636, "alt_km": 497.1713800614343, "timestamp": "2025-12-18T23:35:48.689386+00:00", "meta": {"OBJECT_NAME": "TIANMU-1 17", "OBJECT_ID": "2024-004C", "EPOCH": "2025-12-18T14:20:38.111712", "MEAN_MOTION": 15.24553132, "ECCENTRICITY": 0.00034936, "INCLINATION": 97.4595, "RA_OF_ASC_NODE": 173.842, "ARG_OF_PERICENTER": 272.0121, "MEAN_ANOMALY": 88.0716, "EPHEMERIS_TYPE": 0, "CLASSIFICATION_TYPE": "U", "NORAD_CAT_ID": 58702, "ELEMENT_SET_NO": 999, "REV_AT_EPOCH": 10823, "BSTAR": 0.0002315616, "MEAN_MOTION_DOT": 5.63e-05, "MEAN_MOTION_DDOT": 0}, "tle": {"line1": "1 58702U 24004C   25352.59766333  .00005630  00000+0  23156-3 0  9994", "line2": "2 58702  97.4595 173.8420 0003493 272.0121  88.0716 15.24553132108237"}}, "geometry": {"type": "Point", "coordinates": [-178.28334139950636, -44.855821756510935]}}, {"type": "Feature", "properties": {"norad_id": 58703, "name": "TIANMU-1 18", "group": "weather", "lat": 45.37218702678047, "lon": 166.79297670804502, "alt_km": 489.75148097945566, "timestamp": "2025-12-18T23:35:48.689396+00:00", "meta": {"OBJECT_NAME": "TIANMU-1 18", "OBJECT_ID": "2024-004D", "EPOCH": "2025-12-18T15:31:12.077184", "MEAN_MOTION": 15.24539091, "ECCENTRICITY": 0.00028629, "INCLINATION": 97.4611, "RA_OF_ASC_NODE": 174.0874, "ARG_OF_PERICENTER": 269.9453, "MEAN_ANOMALY": 90.1456, "EPHEMERIS_TYPE": 0, "CLASSIFICATION_TYPE": "U", "NORAD_CAT_ID": 58703, "ELEMENT_SET_NO": 999, "REV_AT_EPOCH": 10824, "BSTAR": 0.00022470165, "MEAN_MOTION_DOT": 5.458e-05, "MEAN_MOTION_DDOT": 0}, "tle": {"line1": "1 58703U 24004D   25352.64666756  .00005458  00000+0  22470-3 0  9995", "line2": "2 58703  97.4611 174.0874 0002862 269.9453  90.1456 15.24539091108249"}}, "geometry": {"type": "Point", "coordinates": [166.79297670804502, 45.37218702678047]}}, {"type": "Feature", "properties": {"norad_id": 58990, "name": "INSAT-3DS", "group": "weather", "lat": 0.036696571737790694, "lon": 163.86815744931226, "alt_km": 35787.2801422049, "timestamp": "2025-12-18T23:35:48.689408+00:00", "meta": {"OBJECT_NAME": "INSAT-3DS", "OBJECT_ID": "2024-033A", "EPOCH": "2025-12-18T13:41:09.430656", "MEAN_MOTION": 1.00272406, "ECCENTRICITY": 0.00010984, "INCLINATION": 0.0507, "RA_OF_ASC_NODE": 110.2933, "ARG_OF_PERICENTER": 160.6124, "MEAN_ANOMALY": 103.9142, "EPHEMERIS_TYPE": 0, "CLASSIFICATION_TYPE": "U", "NORAD_CAT_ID": 58990, "ELEMENT_SET_NO": 999, "REV_AT_EPOCH": 4525, "BSTAR": 0, "MEAN_MOTION_DOT": -1.31e-06, "MEAN_MOTION_DDOT": 0}, "tle": {"line1": "1 58990U 24033A   25352.57024804 -.00000131  00000+0  00000+0 0  9994", "line2": "2 58990   0.0507 110.2933 0001098 160.6124 103.9142  1.00272406 45250"}}, "geometry": {"type": "Point", "coordinates": [163.86815744931226, 0.036696571737790694]}}, {"type": "Feature", "properties": {"norad_id": 59051, "name": "METEOR-M2 4", "group": "weather", "lat": 81.31001128100789, "lon": -137.86613760784078, "alt_km": 811.3813399647333, "timestamp": "2025-12-18T23:35:48.689419+00:00", "meta": {"OBJECT_NAME": "METEOR-M2 4", "OBJECT_ID": "2024-039A", "EPOCH": "2025-12-18T14:44:09.690720", "MEAN_MOTION": 14.22402193, "ECCENTRICITY": 0.00067256, "INCLINATION": 98.6774, "RA_OF_ASC_NODE": 309.431, "ARG_OF_PERICENTER": 341.3249, "MEAN_ANOMALY": 18.7681, "EPHEMERIS_TYPE": 0, "CLASSIFICATION_TYPE": "U", "NORAD_CAT_ID": 59051, "ELEMENT_SET_NO": 999, "REV_AT_EPOCH": 9359, "BSTAR": 2.5738346e-05, "MEAN_MOTION_DOT": 1.4e-07, "MEAN_MOTION_DDOT": 0}, "tle": {"line1": "1 59051U 24039A   25352.61400105  .00000014  00000+0  25738-4 0  9995", "line2": "2 59051  98.6774 309.4310 0006725 341.3249  18.7681 14.22402193 93594"}}, "geometry": {"type": "Point", "coordinates": [-137.86613760784078, 81.31001128100789]}}, {"type": "Feature", "properties": {"norad_id": 60133, "name": "GOES 19", "group": "weather", "lat": -5.372874013186211e-05, "lon": 6.600315486358456, "alt_km": 35783.00760063796, "timestamp": "2025-12-18T23:35:48.689430+00:00", "meta": {"OBJECT_NAME": "GOES 19", "OBJECT_ID": "2024-119A", "EPOCH": "2025-12-18T14:38:56.397408", "MEAN_MOTION": 1.00271525, "ECCENTRICITY": 0.00010383, "INCLINATION": 0.0074, "RA_OF_ASC_NODE": 96.524, "ARG_OF_PERICENTER": 227.1623, "MEAN_ANOMALY": 268.3322, "EPHEMERIS_TYPE": 0, "CLASSIFICATION_TYPE": "U", "NORAD_CAT_ID": 60133, "ELEMENT_SET_NO": 999, "REV_AT_EPOCH": 515, "BSTAR": 0, "MEAN_MOTION_DOT": -2.23e-06, "MEAN_MOTION_DDOT": 0}, "tle": {"line1": "1 60133U 24119A   25352.61037497 -.00000223  00000+0  00000+0 0  9990", "line2": "2 60133   0.0074  96.5240 0001038 227.1623 268.3322  1.00271525  5157"}}, "geometry": {"type": "Point", "coordinates": [6.600315486358456, -5.372874013186211e-05]}}, {"type": "Feature", "properties": {"norad_id": 65815, "name": "FENGYUN 3H", "group": "weather", "lat": -81.0027405046564, "lon": 6.684492310256543, "alt_km": 833.4958929939166, "timestamp": "2025-12-18T23:35:48.689443+00:00", "meta": {"OBJECT_NAME": "FENGYUN 3H", "OBJECT_ID": "2025-219A", "EPOCH": "2025-12-18T13:51:41.604768", "MEAN_MOTION": 14.19906199, "ECCENTRICITY": 6.964e-05, "INCLINATION": 98.6591, "RA_OF_ASC_NODE": 292.0413, "ARG_OF_PERICENTER": 102.9394, "MEAN_ANOMALY": 257.186, "EPHEMERIS_TYPE": 0, "CLASSIFICATION_TYPE": "U", "NORAD_CAT_ID": 65815, "ELEMENT_SET_NO": 999, "REV_AT_EPOCH": 1175, "BSTAR": 4.1354661e-05, "MEAN_MOTION_DOT": 4.5e-07, "MEAN_MOTION_DDOT": 0}, "tle": {"line1": "1 65815U 25219A   25352.57756487  .00000045  00000+0  41355-4 0  9990", "line2": "2 65815  98.6591 292.0413 0000696 102.9394 257.1860 14.19906199 11757"}}, "geometry": {"type": "Point", "coordinates": [6.684492310256543, -81.0027405046564]}}]}